SATELIOT_3              
1 60552U 24149CN  26068.79802274  .00002865  00000+0  25003-3 0  9992
2 60552  97.6866 147.0596 0005831  63.3535 296.8284 14.97601684 85206
STARLINK-35837          
1 66840U 25280V   26068.88984179  .00004917  00000+0  41961-3 0  9991
2 66840  70.0022 334.0388 0002934 271.4560  88.6263 14.98331300 16102
